TYVAK-182A              
1 48271U 21034D   26068.71131789  .00007163  00000+0  50673-3 0  9991
2 48271  97.5843 129.3711 0004862 316.5650  43.5193 15.05150420264864
STARLINK-6335           
1 56527U 23065AA  26068.44855206  .00000089  00000+0  21692-4 0  9997
2 56527  43.0007 211.1962 0001201 265.9221  94.1484 15.02536280156592
